{
  "type": "FeatureCollection",
  "features": [
    {
      "type": "Feature",
      "properties": {
        "norad_id": 40730,
        "name": "GPS BIIF-10 (PRN 08)",
        "group": "gps-ops",
        "lat": 39.1476492055192,
        "lon": 58.97629586370129,
        "alt_km": 20236.364126414748,
        "timestamp": "2025-12-06T22:38:42.987525+00:00",
        "meta_object_name": "GPS BIIF-10 (PRN 08)",
        "meta_object_id": "2015-033A",
        "meta_epoch": "2025-12-06T06:27:28.952640",
        "meta_mean_motion": 2.00565778,
        "meta_eccentricity": 0.01105625,
        "meta_inclination": 54.1364,
        "meta_ra_of_asc_node": 275.0391,
        "meta_arg_of_pericenter": 26.649,
        "meta_mean_anomaly": 333.9251,
        "meta_ephemeris_type": 0,
        "meta_classification_type": "U",
        "meta_norad_cat_id": 40730,
        "meta_element_set_no": 999,
        "meta_rev_at_epoch": 7612,
        "meta_bstar": 0,
        "meta_mean_motion_dot": -3e-07,
        "meta_mean_motion_ddot": 0,
        "tle_line1": "1 40730U 15033A   25340.26908510 -.00000030  00000+0  00000+0 0  9993",
        "tle_line2": "2 40730  54.1364 275.0391 0110562  26.6490 333.9251  2.00565778 76120"
      },
      "geometry": {
        "type": "Point",
        "coordinates": [
          58.97629586370129,
          39.1476492055192
        ]
      }
    },
    {
      "type": "Feature",
      "properties": {
        "norad_id": 41019,
        "name": "GPS BIIF-11 (PRN 10)",
        "group": "gps-ops",
        "lat": 56.0919802851029,
        "lon": 114.70372916772433,
        "alt_km": 20422.203757488096,
        "timestamp": "2025-12-06T22:38:42.987536+00:00",
        "meta_object_name": "GPS BIIF-11 (PRN 10)",
        "meta_object_id": "2015-062A",
        "meta_epoch": "2025-12-06T07:52:58.423872",
        "meta_mean_motion": 2.0056703,
        "meta_eccentricity": 0.01106332,
        "meta_inclination": 56.8275,
        "meta_ra_of_asc_node": 38.2504,
        "meta_arg_of_pericenter": 229.7544,
        "meta_mean_anomaly": 129.3288,
        "meta_ephemeris_type": 0,
        "meta_classification_type": "U",
        "meta_norad_cat_id": 41019,
        "meta_element_set_no": 999,
        "meta_rev_at_epoch": 7396,
        "meta_bstar": 0,
        "meta_mean_motion_dot": -6.9e-07,
        "meta_mean_motion_ddot": 0,
        "tle_line1": "1 41019U 15062A   25340.32845398 -.00000069  00000+0  00000+0 0  9999",
        "tle_line2": "2 41019  56.8275  38.2504 0110633 229.7544 129.3288  2.00567030 73960"
      },
      "geometry": {
        "type": "Point",
        "coordinates": [
          114.70372916772433,
          56.0919802851029
        ]
      }
    },
    {
      "type": "Feature",
      "properties": {
        "norad_id": 41328,
        "name": "GPS BIIF-12 (PRN 32)",
        "group": "gps-ops",
        "lat": 19.874705336051804,
        "lon": 111.51080051818695,
        "alt_km": 20368.64500779255,
        "timestamp": "2025-12-06T22:38:42.987547+00:00",
        "meta_object_name": "GPS BIIF-12 (PRN 32)",
        "meta_object_id": "2016-007A",
        "meta_epoch": "2025-12-05T09:55:37.612128",
        "meta_mean_motion": 2.00560998,
        "meta_eccentricity": 0.00917952,
        "meta_inclination": 55.402,
        "meta_ra_of_asc_node": 97.1478,
        "meta_arg_of_pericenter": 243.3887,
        "meta_mean_anomaly": 115.6411,
        "meta_ephemeris_type": 0,
        "meta_classification_type": "U",
        "meta_norad_cat_id": 41328,
        "meta_element_set_no": 999,
        "meta_rev_at_epoch": 7195,
        "meta_bstar": 0,
        "meta_mean_motion_dot": -1.1e-07,
        "meta_mean_motion_ddot": 0,
        "tle_line1": "1 41328U 16007A   25339.41362977 -.00000011  00000+0  00000+0 0  9994",
        "tle_line2": "2 41328  55.4020  97.1478 0091795 243.3887 115.6411  2.00560998 71958"
      },
      "geometry": {
        "type": "Point",
        "coordinates": [
          111.51080051818695,
          19.874705336051804
        ]
      }
    },
    {
      "type": "Feature",
      "properties": {
        "norad_id": 43873,
        "name": "GPS BIII-1  (PRN 04)",
        "group": "gps-ops",
        "lat": -54.56814521359056,
        "lon": 25.350035408713975,
        "alt_km": 20178.85286826345,
        "timestamp": "2025-12-06T22:38:42.987558+00:00",
        "meta_object_name": "GPS BIII-1  (PRN 04)",
        "meta_object_id": "2018-109A",
        "meta_epoch": "2025-12-06T13:44:13.581888",
        "meta_mean_motion": 2.00553236,
        "meta_eccentricity": 0.00371783,
        "meta_inclination": 55.5639,
        "meta_ra_of_asc_node": 99.7903,
        "meta_arg_of_pericenter": 194.7301,
        "meta_mean_anomaly": 175.7639,
        "meta_ephemeris_type": 0,
        "meta_classification_type": "U",
        "meta_norad_cat_id": 43873,
        "meta_element_set_no": 999,
        "meta_rev_at_epoch": 5121,
        "meta_bstar": 0,
        "meta_mean_motion_dot": -4e-08,
        "meta_mean_motion_ddot": 0,
        "tle_line1": "1 43873U 18109A   25340.57237942 -.00000004  00000+0  00000+0 0  9990",
        "tle_line2": "2 43873  55.5639  99.7903 0037178 194.7301 175.7639  2.00553236 51211"
      },
      "geometry": {
        "type": "Point",
        "coordinates": [
          25.350035408713975,
          -54.56814521359056
        ]
      }
    },
    {
      "type": "Feature",
      "properties": {
        "norad_id": 44506,
        "name": "GPS BIII-2  (PRN 18)",
        "group": "gps-ops",
        "lat": 4.1383989894101685,
        "lon": 155.9482554927584,
        "alt_km": 20041.274432373637,
        "timestamp": "2025-12-06T22:38:42.987569+00:00",
        "meta_object_name": "GPS BIII-2  (PRN 18)",
        "meta_object_id": "2019-056A",
        "meta_epoch": "2025-12-06T10:33:28.812384",
        "meta_mean_motion": 2.00565693,
        "meta_eccentricity": 0.00577848,
        "meta_inclination": 55.7237,
        "meta_ra_of_asc_node": 338.8025,
        "meta_arg_of_pericenter": 198.47,
        "meta_mean_anomaly": 333.0886,
        "meta_ephemeris_type": 0,
        "meta_classification_type": "U",
        "meta_norad_cat_id": 44506,
        "meta_element_set_no": 999,
        "meta_rev_at_epoch": 4620,
        "meta_bstar": 0,
        "meta_mean_motion_dot": -8e-07,
        "meta_mean_motion_ddot": 0,
        "tle_line1": "1 44506U 19056A   25340.43991681 -.00000080  00000+0  00000+0 0  9992",
        "tle_line2": "2 44506  55.7237 338.8025 0057784 198.4700 333.0886  2.00565693 46208"
      },
      "geometry": {
        "type": "Point",
        "coordinates": [
          155.9482554927584,
          4.1383989894101685
        ]
      }
    },
    {
      "type": "Feature",
      "properties": {
        "norad_id": 45854,
        "name": "GPS BIII-3  (PRN 23)",
        "group": "gps-ops",
        "lat": 47.05568950590637,
        "lon": 171.20948704415989,
        "alt_km": 20160.751208681562,
        "timestamp": "2025-12-06T22:38:42.987581+00:00",
        "meta_object_name": "GPS BIII-3  (PRN 23)",
        "meta_object_id": "2020-041A",
        "meta_epoch": "2025-12-06T06:48:20.878272",
        "meta_mean_motion": 2.00561679,
        "meta_eccentricity": 0.00603304,
        "meta_inclination": 56.5425,
        "meta_ra_of_asc_node": 36.4371,
        "meta_arg_of_pericenter": 203.1563,
        "meta_mean_anomaly": 159.699,
        "meta_ephemeris_type": 0,
        "meta_classification_type": "U",
        "meta_norad_cat_id": 45854,
        "meta_element_set_no": 999,
        "meta_rev_at_epoch": 4017,
        "meta_bstar": 0,
        "meta_mean_motion_dot": -7e-07,
        "meta_mean_motion_ddot": 0,
        "tle_line1": "1 45854U 20041A   25340.28357498 -.00000070  00000+0  00000+0 0  9999",
        "tle_line2": "2 45854  56.5425  36.4371 0060330 203.1563 159.6990  2.00561679 40178"
      },
      "geometry": {
        "type": "Point",
        "coordinates": [
          171.20948704415989,
          47.05568950590637
        ]
      }
    },
    {
      "type": "Feature",
      "properties": {
        "norad_id": 46826,
        "name": "GPS BIII-4  (PRN 14)",
        "group": "gps-ops",
        "lat": 54.01564042499198,
        "lon": -52.304498754056766,
        "alt_km": 20245.900958884282,
        "timestamp": "2025-12-06T22:38:42.987592+00:00",
        "meta_object_name": "GPS BIII-4  (PRN 14)",
        "meta_object_id": "2020-078A",
        "meta_epoch": "2025-11-12T03:01:29.191584",
        "meta_mean_motion": 2.00567032,
        "meta_eccentricity": 0.00639112,
        "meta_inclination": 54.0223,
        "meta_ra_of_asc_node": 219.5836,
        "meta_arg_of_pericenter": 203.4986,
        "meta_mean_anomaly": 326.7753,
        "meta_ephemeris_type": 0,
        "meta_classification_type": "U",
        "meta_norad_cat_id": 46826,
        "meta_element_set_no": 999,
        "meta_rev_at_epoch": 3715,
        "meta_bstar": 0,
        "meta_mean_motion_dot": -3.4e-07,
        "meta_mean_motion_ddot": 0,
        "tle_line1": "1 46826U 20078A   25316.12603231 -.00000034  00000+0  00000+0 0  9994",
        "tle_line2": "2 46826  54.0223 219.5836 0063911 203.4986 326.7753  2.00567032 37154"
      },
      "geometry": {
        "type": "Point",
        "coordinates": [
          -52.304498754056766,
          54.01564042499198
        ]
      }
    }
  ]
}